CCSDS_OMM_VERS = 2.0
CREATION_DATE  = 
ORIGINATOR     = 

OBJECT_NAME    = STARLINK-36993
OBJECT_ID      = 2026-039J
CENTER_NAME    = EARTH
REF_FRAME      = TEME
TIME_SYSTEM    = UTC
MEAN_ELEMENT_THEORY = SGP/SGP4

EPOCH          = 2026-03-21T04:00:00.999936
MEAN_MOTION    = 15.54529583
ECCENTRICITY   = .00016833
INCLINATION    = 42.9997
RA_OF_ASC_NODE = 345.3237
ARG_OF_PERICENTER = 273.4989
MEAN_ANOMALY   = 125.9041

EPHEMERIS_TYPE = 0
CLASSIFICATION_TYPE = U
NORAD_CAT_ID   = 67994
ELEMENT_SET_NO = 999
REV_AT_EPOCH   = 472
BSTAR          = -.31042389E-1
MEAN_MOTION_DOT = -.1858546E-1
MEAN_MOTION_DDOT = 0

CCSDS_OMM_VERS = 2.0
CREATION_DATE  = 
ORIGINATOR     = 

OBJECT_NAME    = STARLINK-36968
OBJECT_ID      = 2026-039K
CENTER_NAME    = EARTH
REF_FRAME      = TEME
TIME_SYSTEM    = UTC
MEAN_ELEMENT_THEORY = SGP/SGP4

EPOCH          = 2026-03-21T04:00:00.999936
MEAN_MOTION    = 15.50576811
ECCENTRICITY   = .00014779
INCLINATION    = 42.9996
RA_OF_ASC_NODE = 346.2150
ARG_OF_PERICENTER = 266.9663
MEAN_ANOMALY   = 131.4115

EPHEMERIS_TYPE = 0
CLASSIFICATION_TYPE = U
NORAD_CAT_ID   = 67995
ELEMENT_SET_NO = 999
REV_AT_EPOCH   = 472
BSTAR          = -.57764265E-3
MEAN_MOTION_DOT = -.34079E-3
MEAN_MOTION_DDOT = 0

CCSDS_OMM_VERS = 2.0
CREATION_DATE  = 
ORIGINATOR     = 

OBJECT_NAME    = STARLINK-36979
OBJECT_ID      = 2026-039L
CENTER_NAME    = EARTH
REF_FRAME      = TEME
TIME_SYSTEM    = UTC
MEAN_ELEMENT_THEORY = SGP/SGP4

EPOCH          = 2026-03-21T04:00:00.999936
MEAN_MOTION    = 15.56104759
ECCENTRICITY   = .00014896
INCLINATION    = 42.9992
RA_OF_ASC_NODE = 345.2227
ARG_OF_PERICENTER = 269.4281
MEAN_ANOMALY   = 170.6263

EPHEMERIS_TYPE = 0
CLASSIFICATION_TYPE = U
NORAD_CAT_ID   = 67996
ELEMENT_SET_NO = 999
REV_AT_EPOCH   = 472
BSTAR          = -.2903772E-1
MEAN_MOTION_DOT = -.1845281E-1
MEAN_MOTION_DDOT = 0

CCSDS_OMM_VERS = 2.0
CREATION_DATE  = 
ORIGINATOR     = 

OBJECT_NAME    = STARLINK-36994
OBJECT_ID      = 2026-039M
CENTER_NAME    = EARTH
REF_FRAME      = TEME
TIME_SYSTEM    = UTC
MEAN_ELEMENT_THEORY = SGP/SGP4

EPOCH          = 2026-03-21T04:00:00.999936
MEAN_MOTION    = 15.50481956
ECCENTRICITY   = .00018933
INCLINATION    = 42.9999
RA_OF_ASC_NODE = 345.5525
ARG_OF_PERICENTER = 259.0634
MEAN_ANOMALY   = 46.9767

EPHEMERIS_TYPE = 0
CLASSIFICATION_TYPE = U
NORAD_CAT_ID   = 67997
ELEMENT_SET_NO = 999
REV_AT_EPOCH   = 472
BSTAR          = .2279802E-2
MEAN_MOTION_DOT = .135272E-2
MEAN_MOTION_DDOT = 0

CCSDS_OMM_VERS = 2.0
CREATION_DATE  = 
ORIGINATOR     = 

OBJECT_NAME    = STARLINK-36988
OBJECT_ID      = 2026-039N
CENTER_NAME    = EARTH
REF_FRAME      = TEME
TIME_SYSTEM    = UTC
MEAN_ELEMENT_THEORY = SGP/SGP4

EPOCH          = 2026-03-21T04:00:00.999936
MEAN_MOTION    = 15.50821718
ECCENTRICITY   = .00009926
INCLINATION    = 42.9998
RA_OF_ASC_NODE = 345.4945
ARG_OF_PERICENTER = 241.8293
MEAN_ANOMALY   = 87.8250

EPHEMERIS_TYPE = 0
CLASSIFICATION_TYPE = U
NORAD_CAT_ID   = 67998
ELEMENT_SET_NO = 999
REV_AT_EPOCH   = 472
BSTAR          = -.74897319E-2
MEAN_MOTION_DOT = -.420541E-2
MEAN_MOTION_DDOT = 0

CCSDS_OMM_VERS = 2.0
CREATION_DATE  = 
ORIGINATOR     = 

OBJECT_NAME    = STARLINK-36926
OBJECT_ID      = 2026-039P
CENTER_NAME    = EARTH
REF_FRAME      = TEME
TIME_SYSTEM    = UTC
MEAN_ELEMENT_THEORY = SGP/SGP4

EPOCH          = 2026-03-21T04:00:00.999936
MEAN_MOTION    = 15.50555115
ECCENTRICITY   = .00010449
INCLINATION    = 42.9997
RA_OF_ASC_NODE = 345.5290
ARG_OF_PERICENTER = 264.9156
MEAN_ANOMALY   = 50.4501

EPHEMERIS_TYPE = 0
CLASSIFICATION_TYPE = U
NORAD_CAT_ID   = 67999
ELEMENT_SET_NO = 999
REV_AT_EPOCH   = 472
BSTAR          = -.82208141E-4
MEAN_MOTION_DOT = -.5156E-4
MEAN_MOTION_DDOT = 0

CCSDS_OMM_VERS = 2.0
CREATION_DATE  = 
ORIGINATOR     = 

OBJECT_NAME    = STARLINK-36931
OBJECT_ID      = 2026-039Q
CENTER_NAME    = EARTH
REF_FRAME      = TEME
TIME_SYSTEM    = UTC
MEAN_ELEMENT_THEORY = SGP/SGP4

EPOCH          = 2026-03-21T04:00:00.999936
MEAN_MOTION    = 15.54432837
ECCENTRICITY   = .0001723
INCLINATION    = 42.9998
RA_OF_ASC_NODE = 345.2645
ARG_OF_PERICENTER = 271.1492
MEAN_ANOMALY   = 151.7145

EPHEMERIS_TYPE = 0
CLASSIFICATION_TYPE = U
NORAD_CAT_ID   = 68000
ELEMENT_SET_NO = 999
REV_AT_EPOCH   = 472
BSTAR          = -.30998163E-1
MEAN_MOTION_DOT = -.1850354E-1
MEAN_MOTION_DDOT = 0

CCSDS_OMM_VERS = 2.0
CREATION_DATE  = 
ORIGINATOR     = 

OBJECT_NAME    = STARLINK-36903
OBJECT_ID      = 2026-039R
CENTER_NAME    = EARTH
REF_FRAME      = TEME
TIME_SYSTEM    = UTC
MEAN_ELEMENT_THEORY = SGP/SGP4

EPOCH          = 2026-03-21T04:00:00.999936
MEAN_MOTION    = 15.50540141
ECCENTRICITY   = .00018054
INCLINATION    = 42.9998
RA_OF_ASC_NODE = 345.5171
ARG_OF_PERICENTER = 272.5943
MEAN_ANOMALY   = 48.2022

EPHEMERIS_TYPE = 0
CLASSIFICATION_TYPE = U
NORAD_CAT_ID   = 68001
ELEMENT_SET_NO = 999
REV_AT_EPOCH   = 472
BSTAR          = .70454244E-3
MEAN_MOTION_DOT = .41151E-3
MEAN_MOTION_DDOT = 0

CCSDS_OMM_VERS = 2.0
CREATION_DATE  = 
ORIGINATOR     = 

OBJECT_NAME    = STARLINK-36898
OBJECT_ID      = 2026-039S
CENTER_NAME    = EARTH
REF_FRAME      = TEME
TIME_SYSTEM    = UTC
MEAN_ELEMENT_THEORY = SGP/SGP4

EPOCH          = 2026-03-21T04:00:00.999936
MEAN_MOTION    = 15.53223317
ECCENTRICITY   = .0002019
INCLINATION    = 42.9994
RA_OF_ASC_NODE = 345.3004
ARG_OF_PERICENTER = 255.6537
MEAN_ANOMALY   = 152.9989

EPHEMERIS_TYPE = 0
CLASSIFICATION_TYPE = U
NORAD_CAT_ID   = 68002
ELEMENT_SET_NO = 999
REV_AT_EPOCH   = 472
BSTAR          = -.27385688E-1
MEAN_MOTION_DOT = -.1591883E-1
MEAN_MOTION_DDOT = 0

CCSDS_OMM_VERS = 2.0
CREATION_DATE  = 
ORIGINATOR     = 

OBJECT_NAME    = STARLINK-36862
OBJECT_ID      = 2026-039T
CENTER_NAME    = EARTH
REF_FRAME      = TEME
TIME_SYSTEM    = UTC
MEAN_ELEMENT_THEORY = SGP/SGP4

EPOCH          = 2026-03-21T04:00:00.999936
MEAN_MOTION    = 15.50785266
ECCENTRICITY   = .00012442
INCLINATION    = 42.9997
RA_OF_ASC_NODE = 345.4108
ARG_OF_PERICENTER = 237.9628
MEAN_ANOMALY   = 124.8136

EPHEMERIS_TYPE = 0
CLASSIFICATION_TYPE = U
NORAD_CAT_ID   = 68003
ELEMENT_SET_NO = 999
REV_AT_EPOCH   = 472
BSTAR          = -.71289066E-2
MEAN_MOTION_DOT = -.400788E-2
MEAN_MOTION_DDOT = 0

CCSDS_OMM_VERS = 2.0
CREATION_DATE  = 
ORIGINATOR     = 

OBJECT_NAME    = STARLINK-36888
OBJECT_ID      = 2026-039U
CENTER_NAME    = EARTH
REF_FRAME      = TEME
TIME_SYSTEM    = UTC
MEAN_ELEMENT_THEORY = SGP/SGP4

EPOCH          = 2026-03-21T04:00:00.999936
MEAN_MOTION    = 15.50574165
ECCENTRICITY   = .00009895
INCLINATION    = 42.9999
RA_OF_ASC_NODE = 345.4652
ARG_OF_PERICENTER = 262.9069
MEAN_ANOMALY   = 78.2512

EPHEMERIS_TYPE = 0
CLASSIFICATION_TYPE = U
NORAD_CAT_ID   = 68004
ELEMENT_SET_NO = 999
REV_AT_EPOCH   = 472
BSTAR          = -.10356769E-2
MEAN_MOTION_DOT = -.60619E-3
MEAN_MOTION_DDOT = 0

CCSDS_OMM_VERS = 2.0
CREATION_DATE  = 
ORIGINATOR     = 

OBJECT_NAME    = STARLINK-36910
OBJECT_ID      = 2026-039V
CENTER_NAME    = EARTH
REF_FRAME      = TEME
TIME_SYSTEM    = UTC
MEAN_ELEMENT_THEORY = SGP/SGP4

EPOCH          = 2026-03-21T04:00:00.999936
MEAN_MOTION    = 15.54448637
ECCENTRICITY   = .00016373
INCLINATION    = 42.9998
RA_OF_ASC_NODE = 345.2178
ARG_OF_PERICENTER = 286.1407
MEAN_ANOMALY   = 155.2727

EPHEMERIS_TYPE = 0
CLASSIFICATION_TYPE = U
NORAD_CAT_ID   = 68005
ELEMENT_SET_NO = 999
REV_AT_EPOCH   = 472
BSTAR          = -.29972068E-1
MEAN_MOTION_DOT = -.1796828E-1
MEAN_MOTION_DDOT = 0

