STARLINK-36993          
1 67994U 26039J   26080.16667824 -.01858546  00000+0 -31042-1 0  9990
2 67994  42.9997 345.3237 0001683 273.4989 125.9041 15.54529583  4726
STARLINK-36968          
1 67995U 26039K   26080.16667824 -.00034079  00000+0 -57764-3 0  9998
2 67995  42.9996 346.2150 0001477 266.9663 131.4115 15.50576811  4723
STARLINK-36979          
1 67996U 26039L   26080.16667824 -.01845281  00000+0 -29038-1 0  9996
2 67996  42.9992 345.2227 0001489 269.4281 170.6263 15.56104759  4724
STARLINK-36994          
1 67997U 26039M   26080.16667824  .00135272  00000+0  22798-2 0  9993
2 67997  42.9999 345.5525 0001893 259.0634  46.9767 15.50481956  4727
STARLINK-36988          
1 67998U 26039N   26080.16667824 -.00420541  00000+0 -74897-2 0  9999
2 67998  42.9998 345.4945 0000992 241.8293  87.8250 15.50821718  4726
STARLINK-36926          
1 67999U 26039P   26080.16667824 -.00005156  00000+0 -82208-4 0  9998
2 67999  42.9997 345.5290 0001044 264.9156  50.4501 15.50555115  4723
STARLINK-36931          
1 68000U 26039Q   26080.16667824 -.01850354  00000+0 -30998-1 0  9997
2 68000  42.9998 345.2645 0001723 271.1492 151.7145 15.54432837  4724
STARLINK-36903          
1 68001U 26039R   26080.16667824  .00041151  00000+0  70454-3 0  9995
2 68001  42.9998 345.5171 0001805 272.5943  48.2022 15.50540141  4727
STARLINK-36898          
1 68002U 26039S   26080.16667824 -.01591883  00000+0 -27386-1 0  9995
2 68002  42.9994 345.3004 0002019 255.6537 152.9989 15.53223317  4727
STARLINK-36862          
1 68003U 26039T   26080.16667824 -.00400788  00000+0 -71289-2 0  9990
2 68003  42.9997 345.4108 0001244 237.9628 124.8136 15.50785266  4725
STARLINK-36888          
1 68004U 26039U   26080.16667824 -.00060619  00000+0 -10357-2 0  9995
2 68004  42.9999 345.4652 0000989 262.9069  78.2512 15.50574165  4728
STARLINK-36910          
1 68005U 26039V   26080.16667824 -.01796828  00000+0 -29972-1 0  9997
2 68005  42.9998 345.2178 0001637 286.1407 155.2727 15.54448637  4726
